{"format":"tle-catalog-v1","generatedAt":"2026-06-25T16:01:17.978Z","count":6895,"entries":[{"name":"CZ-12B R/B","line1":"1 69327U 26121C   26176.28298754  .00000056  00000+0  23383-4 0  9999","line2":"2 69327  89.0325 299.5599 0194271 341.3041  18.1070 14.04087577  3366"},{"name":"GUOWANG TEST OBJECT A","line1":"1 69320U 26120A   26172.81697494  .00008673  00000+0  23140-3 0  9993","line2":"2 69320  55.0017   6.9033 0011359 337.7695  22.2839 15.38939558  3409"},{"name":"GUOWANG TEST OBJECT B","line1":"1 69321U 26120B   26176.19319351  .00014698  00000+0  38505-3 0  9997","line2":"2 69321  54.9979 351.6908 0011280 351.4880   8.5955 15.38922359  3922"},{"name":"GUOWANG TEST OBJECT C","line1":"1 69322U 26120C   26175.53492903  .00013040  00000+0  33411-3 0  9991","line2":"2 69322  54.9990 354.5630 0011951 356.3321   3.7618 15.39708674  3824"},{"name":"GUOWANG TEST OBJECT D","line1":"1 69323U 26120D   26175.86483839  .00010384  00000+0  27711-3 0  9990","line2":"2 69323  54.9975 353.1299 0012277   3.7014 356.4103 15.38693709  3871"},{"name":"QIANFAN-163","line1":"1 69325U 26121A   26171.83152253  .00000035  00000+0  30105-4 0  9993","line2":"2 69325  89.0159 300.1473 0020476 178.2353 181.8879 13.59758614  2659"},{"name":"QIANFAN-164","line1":"1 69326U 26121B   26175.73707148  .00000148  00000+0  18867-3 0  9991","line2":"2 69326  89.0174 299.7565 0020666 166.5026 193.6686 13.57844977  3182"},{"name":"STARLINK-37617","line1":"1 69314U 26119U   26176.25002315  .00011568  00000+0  21426-3 0  9990","line2":"2 69314  97.2858 202.2224 0000501 105.0216 194.4762 15.49160929  5340"},{"name":"STARLINK-37619","line1":"1 69309U 26119P   26176.25002315 -.00026189  00000+0 -72542-3 0  9996","line2":"2 69309  97.2851 202.2330 0001340  66.9803 258.7567 15.36974402  5335"},{"name":"STARLINK-37627","line1":"1 69315U 26119V   26176.25002315 -.01537507  00000+0 -30737-1 0  9993","line2":"2 69315  97.2857 202.2257 0000707  67.9357 242.3461 15.49688799  5345"},{"name":"STARLINK-37676","line1":"1 69313U 26119T   26176.25002315 -.03438176  00000+0 -10997+0 0  9999","line2":"2 69313  97.2843 202.2809 0001761  54.5467  10.4170 15.36309956  5348"},{"name":"STARLINK-37689","line1":"1 69308U 26119N   26176.03288449  .00053412  00000+0  97568-3 0  9997","line2":"2 69308  97.2845 201.7765 0000145 198.7771 161.3475 15.49230409  5246"},{"name":"STARLINK-37701","line1":"1 69306U 26119L   26176.25002315 -.02759281  00000+0 -67361-1 0  9992","line2":"2 69306  97.2855 202.2123 0001737  94.7569 185.6813 15.44864979  5332"},{"name":"STARLINK-37730","line1":"1 69303U 26119H   26176.25002315 -.03057190  00000+0 -95160-1 0  9998","line2":"2 69303  97.2853 202.2207 0001347  90.6486 182.1071 15.37341382  5338"},{"name":"STARLINK-37731","line1":"1 69304U 26119J   26176.03631771  .00041501  00000+0  75992-3 0  9996","line2":"2 69304  97.2870 201.7740 0000883  52.4966 307.6366 15.49219281  5243"},{"name":"STARLINK-37732","line1":"1 69307U 26119M   26176.25002315 -.00022325  00000+0 -69154-3 0  9997","line2":"2 69307  97.2851 202.2381 0001204  89.8268 247.0613 15.33430309  5330"},{"name":"STARLINK-37733","line1":"1 69329U 26122A   26176.25002315  .00009095  00000+0  16884-3 0  9994","line2":"2 69329  97.2851 205.9509 0001326  95.6833  45.1231 15.49163669  4649"},{"name":"STARLINK-37734","line1":"1 69305U 26119K   26176.03042284 -.00547944  00000+0 -11650-1 0  9995","line2":"2 69305  97.2866 201.9342 0012464  88.2747 271.9930 15.46858103  5251"},{"name":"STARLINK-37738","line1":"1 69316U 26119W   26176.25002315  .00037762  00000+0  69423-3 0  9995","line2":"2 69316  97.2856 202.2281 0001517  92.7323 216.4265 15.49123714  5346"},{"name":"STARLINK-37768","line1":"1 69331U 26122C   26176.25002315 -.00003863  00000+0 -69468-4 0  9993","line2":"2 69331  97.2849 205.8777 0001364  84.8473 243.8938 15.49159800  4594"},{"name":"STARLINK-37772","line1":"1 69330U 26122B   26176.25002315  .00005160  00000+0  96562-4 0  9997","line2":"2 69330  97.2849 205.9857 0001707  86.7851 133.8252 15.49161350  4595"},{"name":"STARLINK-37790","line1":"1 69312U 26119S   26176.25002315 -.00123818  00000+0 -23070-2 0  9998","line2":"2 69312  97.2856 202.2145 0001130  91.6544 191.3282 15.49237700  5346"},{"name":"STARLINK-37794","line1":"1 69310U 26119Q   26176.03114892  .00147605  00000+0  26251-2 0  9998","line2":"2 69310  97.2861 201.9336 0000616 115.5575 244.5741 15.49621709  5253"},{"name":"STARLINK-37795","line1":"1 69311U 26119R   26175.31781791  .00038586  00000+0  70718-3 0  9992","line2":"2 69311  97.2848 201.0650 0000208 230.3114 129.8119 15.49208827  5134"},{"name":"STARLINK-37799","line1":"1 69317U 26119X   26176.25002315 -.03715902  00000+0 -11928+0 0  9993","line2":"2 69317  97.2853 202.3072 0002659  63.8844  60.9708 15.36521918  5290"},{"name":"STARLINK-37802","line1":"1 69318U 26119Y   26176.25002315 -.02698519  00000+0 -61287-1 0  9992","line2":"2 69318  97.2848 202.2827 0001476  73.5228  10.1959 15.46866480  5340"},{"name":"STARLINK-37803","line1":"1 69319U 26119Z   26176.25002315  .00025305  00000+0  46606-3 0  9996","line2":"2 69319  97.2858 202.1532 0000858  91.2077  43.3804 15.49151794  5295"},{"name":"STARLINK-37804","line1":"1 69302U 26119G   26176.03524133  .00052827  00000+0  96509-3 0  9997","line2":"2 69302  97.2872 201.7752 0000400  87.9923 272.1375 15.49230161  5243"},{"name":"STARLINK-37833","line1":"1 69332U 26122D   26176.25002315  .00010550  00000+0  19559-3 0  9998","line2":"2 69332  97.2852 205.9502 0001335  86.3327  51.8666 15.49157900  4593"},{"name":"SZ-22 MODULE","line1":"1 69328U 25272C   26175.72837316  .00019722  00000+0  23598-3 0  9994","line2":"2 69328  41.4798 276.2542 0006676 151.6586 208.4617 15.60483468  4500"}]}