OBJECT_NAME,OBJECT_ID,EPOCH,MEAN_MOTION,ECCENTRICITY,INCLINATION,RA_OF_ASC_NODE,ARG_OF_PERICENTER,MEAN_ANOMALY,EPHEMERIS_TYPE,CLASSIFICATION_TYPE,NORAD_CAT_ID,ELEMENT_SET_NO,REV_AT_EPOCH,BSTAR,MEAN_MOTION_DOT,MEAN_MOTION_DDOT
STARLINK-37804,2026-119G,2026-06-25T00:50:44.850912,15.49230161,.00004007,97.2872,201.7752,87.9923,272.1375,0,U,69302,999,524,.9650942E-3,.52827E-3,0
STARLINK-37730,2026-119H,2026-06-25T06:00:02.000160,15.37341382,.0001347,97.2853,202.2207,90.6486,182.1071,0,U,69303,999,533,-.95159783E-1,-.305719E-1,0
STARLINK-37731,2026-119J,2026-06-25T00:52:17.850144,15.49219281,.00008833,97.2870,201.7740,52.4966,307.6366,0,U,69304,999,524,.75991917E-3,.41501E-3,0
STARLINK-37734,2026-119K,2026-06-25T00:43:48.533376,15.46858103,.00124646,97.2866,201.9342,88.2747,271.9930,0,U,69305,999,525,-.11649831E-1,-.547944E-2,0
STARLINK-37701,2026-119L,2026-06-25T06:00:02.000160,15.44864979,.00017378,97.2855,202.2123,94.7569,185.6813,0,U,69306,999,533,-.6736099E-1,-.2759281E-1,0
STARLINK-37732,2026-119M,2026-06-25T06:00:02.000160,15.33430309,.00012042,97.2851,202.2381,89.8268,247.0613,0,U,69307,999,533,-.69153701E-3,-.22325E-3,0
STARLINK-37689,2026-119N,2026-06-25T00:47:21.219936,15.49230409,.00001452,97.2845,201.7765,198.7771,161.3475,0,U,69308,999,524,.97568385E-3,.53412E-3,0
STARLINK-37619,2026-119P,2026-06-25T06:00:02.000160,15.36974402,.00013401,97.2851,202.2330,66.9803,258.7567,0,U,69309,999,533,-.72541918E-3,-.26189E-3,0
STARLINK-37794,2026-119Q,2026-06-25T00:44:51.266688,15.49621709,.00006162,97.2861,201.9336,115.5575,244.5741,0,U,69310,999,525,.26250658E-2,.147605E-2,0
STARLINK-37795,2026-119R,2026-06-24T07:37:39.467424,15.49208827,.0000208,97.2848,201.0650,230.3114,129.8119,0,U,69311,999,513,.70718232E-3,.38586E-3,0
STARLINK-37790,2026-119S,2026-06-25T06:00:02.000160,15.49237700,.000113,97.2856,202.2145,91.6544,191.3282,0,U,69312,999,534,-.2306958E-2,-.123818E-2,0
STARLINK-37676,2026-119T,2026-06-25T06:00:02.000160,15.36309956,.00017613,97.2843,202.2809,54.5467,10.4170,0,U,69313,999,534,-.1099748E+0,-.3438176E-1,0
STARLINK-37617,2026-119U,2026-06-25T06:00:02.000160,15.49160929,.00005012,97.2858,202.2224,105.0216,194.4762,0,U,69314,999,534,.21425897E-3,.11568E-3,0
STARLINK-37627,2026-119V,2026-06-25T06:00:02.000160,15.49688799,.00007074,97.2857,202.2257,67.9357,242.3461,0,U,69315,999,534,-.30737105E-1,-.1537507E-1,0
STARLINK-37738,2026-119W,2026-06-25T06:00:02.000160,15.49123714,.00015173,97.2856,202.2281,92.7323,216.4265,0,U,69316,999,534,.69423229E-3,.37762E-3,0
STARLINK-37799,2026-119X,2026-06-25T06:00:02.000160,15.36521918,.00026593,97.2853,202.3072,63.8844,60.9708,0,U,69317,999,529,-.11928211E+0,-.3715902E-1,0
STARLINK-37802,2026-119Y,2026-06-25T06:00:02.000160,15.46866480,.00014766,97.2848,202.2827,73.5228,10.1959,0,U,69318,999,534,-.61286784E-1,-.2698519E-1,0
STARLINK-37803,2026-119Z,2026-06-25T06:00:02.000160,15.49151794,.00008581,97.2858,202.1532,91.2077,43.3804,0,U,69319,999,529,.46606076E-3,.25305E-3,0
GUOWANG TEST OBJECT A,2026-120A,2026-06-21T19:36:26.634816,15.38939558,.00113591,55.0017,6.9033,337.7695,22.2839,0,U,69320,999,340,.23139514E-3,.8673E-4,0
GUOWANG TEST OBJECT B,2026-120B,2026-06-25T04:38:11.919264,15.38922359,.00112802,54.9979,351.6908,351.4880,8.5955,0,U,69321,999,392,.38504615E-3,.14698E-3,0
GUOWANG TEST OBJECT C,2026-120C,2026-06-24T12:50:17.868192,15.39708674,.00119516,54.9990,354.5630,356.3321,3.7618,0,U,69322,999,382,.33411019E-3,.1304E-3,0
GUOWANG TEST OBJECT D,2026-120D,2026-06-24T20:45:22.036896,15.38693709,.00122778,54.9975,353.1299,3.7014,356.4103,0,U,69323,999,387,.2771132E-3,.10384E-3,0
QIANFAN-163,2026-121A,2026-06-20T19:57:23.546592,13.59758614,.00204763,89.0159,300.1473,178.2353,181.8879,0,U,69325,999,265,.30105417E-4,.35E-6,0
QIANFAN-164,2026-121B,2026-06-24T17:41:22.975872,13.57844977,.00206665,89.0174,299.7565,166.5026,193.6686,0,U,69326,999,318,.18866887E-3,.148E-5,0
CZ-12B R/B,2026-121C,2026-06-25T06:47:30.123456,14.04087577,.0194271,89.0325,299.5599,341.3041,18.1070,0,U,69327,999,336,.2338306E-4,.56E-6,0
SZ-22 MODULE,2025-272C,2026-06-24T17:28:51.441024,15.60483468,.00066767,41.4798,276.2542,151.6586,208.4617,0,U,69328,999,450,.23597864E-3,.19722E-3,0
STARLINK-37733,2026-122A,2026-06-25T06:00:02.000160,15.49163669,.00013264,97.2851,205.9509,95.6833,45.1231,0,U,69329,999,464,.16884316E-3,.9095E-4,0
STARLINK-37772,2026-122B,2026-06-25T06:00:02.000160,15.49161350,.00017073,97.2849,205.9857,86.7851,133.8252,0,U,69330,999,459,.96561682E-4,.516E-4,0
STARLINK-37768,2026-122C,2026-06-25T06:00:02.000160,15.49159800,.00013645,97.2849,205.8777,84.8473,243.8938,0,U,69331,999,459,-.69468196E-4,-.3863E-4,0
STARLINK-37833,2026-122D,2026-06-25T06:00:02.000160,15.49157900,.00013355,97.2852,205.9502,86.3327,51.8666,0,U,69332,999,459,.19559165E-3,.1055E-3,0
